{"type":"FeatureCollection","features":[{"type":"Feature","geometry":{"type":"Point","coordinates":[121.3115556,23.3315585]},"properties":{"id":"tra_yuli","name":"玉里","network":"tra","color":"#6B7280"}},{"type":"Feature","geometry":{"type":"Point","coordinates":[121.3137769,24.988726]},"properties":{"id":"tra_taoyuan","name":"桃園","network":"tra","color":"#6B7280"}},{"type":"Feature","geometry":{"type":"Point","coordinates":[121.2261602,24.9533168]},"properties":{"id":"tra_zhongli","name":"中壢","network":"tra","color":"#6B7280"}},{"type":"Feature","geometry":{"type":"Point","coordinates":[121.5283902,25.0205325]},"properties":{"id":"tp_G08","name":"台電大樓","network":"taipei_mrt","color":"#0070BD"}},{"type":"Feature","geometry":{"type":"Point","coordinates":[120.3073523,22.6875679]},"properties":{"id":"tra_xinzuoying","name":"新左營","network":"tra","color":"#6B7280"}},{"type":"Feature","geometry":{"type":"Point","coordinates":[120.2130434,22.9972146]},"properties":{"id":"tra_tainan","name":"臺南","network":"tra","color":"#6B7280"}},{"type":"Feature","geometry":{"type":"Point","coordinates":[120.2317049,22.9330439]},"properties":{"id":"tra_bao_an","name":"保安","network":"tra","color":"#6B7280"}},{"type":"Feature","geometry":{"type":"Point","coordinates":[120.254112,22.8783412]},"properties":{"id":"tra_dahu","name":"大湖","network":"tra","color":"#6B7280"}},{"type":"Feature","geometry":{"type":"Point","coordinates":[120.3004673,22.7923148]},"properties":{"id":"tra_gangshan","name":"岡山","network":"tra","color":"#6B7280"}},{"type":"Feature","geometry":{"type":"Point","coordinates":[120.3102547,22.7610975]},"properties":{"id":"tra_qiaotou","name":"橋頭","network":"tra","color":"#6B7280"}},{"type":"Feature","geometry":{"type":"Point","coordinates":[120.324127,22.7271409]},"properties":{"id":"tra_nanzi","name":"楠梓","network":"tra","color":"#6B7280"}},{"type":"Feature","geometry":{"type":"Point","coordinates":[120.4861261,22.6688534]},"properties":{"id":"tra_pingtung","name":"屏東","network":"tra","color":"#6B7280"}},{"type":"Feature","geometry":{"type":"Point","coordinates":[120.5421809,24.1543321]},"properties":{"id":"tra_dadu","name":"大肚","network":"tra","color":"#6B7280"}},{"type":"Feature","geometry":{"type":"Point","coordinates":[120.538205,24.081673]},"properties":{"id":"tra_changhua","name":"彰化","network":"tra","color":"#6B7280"}},{"type":"Feature","geometry":{"type":"Point","coordinates":[120.455979,23.6008136]},"properties":{"id":"tra_dalin","name":"大林","network":"tra","color":"#6B7280"}},{"type":"Feature","geometry":{"type":"Point","coordinates":[120.5411553,23.7118077]},"properties":{"id":"tra_douliu","name":"斗六","network":"tra","color":"#6B7280"}},{"type":"Feature","geometry":{"type":"Point","coordinates":[120.5804852,23.8958254]},"properties":{"id":"tra_shetou","name":"社頭","network":"tra","color":"#6B7280"}},{"type":"Feature","geometry":{"type":"Point","coordinates":[121.5031693,25.1369644]},"properties":{"id":"tp_R22A","name":"新北投","network":"taipei_mrt","color":"#0070BD"}},{"type":"Feature","geometry":{"type":"Point","coordinates":[121.0092345,24.8391734]},"properties":{"id":"tra_zhubei","name":"竹北","network":"tra","color":"#6B7280"}},{"type":"Feature","geometry":{"type":"Point","coordinates":[120.7872242,24.6162489]},"properties":{"id":"tra_houlong","name":"後龍","network":"tra","color":"#6B7280"}},{"type":"Feature","geometry":{"type":"Point","coordinates":[120.7079453,24.5649309]},"properties":{"id":"tra_baishatun","name":"白沙屯","network":"tra","color":"#6B7280"}},{"type":"Feature","geometry":{"type":"Point","coordinates":[120.6783718,24.4917497]},"properties":{"id":"tra_tongxiao","name":"通霄","network":"tra","color":"#6B7280"}},{"type":"Feature","geometry":{"type":"Point","coordinates":[120.4212016,22.6559651]},"properties":{"id":"tra_jiuqutang","name":"九曲堂","network":"tra","color":"#6B7280"}},{"type":"Feature","geometry":{"type":"Point","coordinates":[121.4211642,23.6663549]},"properties":{"id":"tra_guangfu","name":"光復","network":"tra","color":"#6B7280"}},{"type":"Feature","geometry":{"type":"Point","coordinates":[121.4580926,23.7824277]},"properties":{"id":"tra_nanping","name":"南平","network":"tra","color":"#6B7280"}},{"type":"Feature","geometry":{"type":"Point","coordinates":[121.4959813,23.8485329]},"properties":{"id":"tra_fengtian","name":"豐田","network":"tra","color":"#6B7280"}},{"type":"Feature","geometry":{"type":"Point","coordinates":[121.5108113,23.868919]},"properties":{"id":"tra_shoufeng","name":"壽豐","network":"tra","color":"#6B7280"}},{"type":"Feature","geometry":{"type":"Point","coordinates":[121.5292809,23.9078171]},"properties":{"id":"tra_zhixue","name":"志學","network":"tra","color":"#6B7280"}},{"type":"Feature","geometry":{"type":"Point","coordinates":[121.5827939,23.9678249]},"properties":{"id":"tra_ji_an","name":"吉安","network":"tra","color":"#6B7280"}},{"type":"Feature","geometry":{"type":"Point","coordinates":[121.8226786,24.6157324]},"properties":{"id":"tra_xinma","name":"新馬","network":"tra","color":"#6B7280"}},{"type":"Feature","geometry":{"type":"Point","coordinates":[121.7629029,24.7868587]},"properties":{"id":"tra_sicheng","name":"四城","network":"tra","color":"#6B7280"}},{"type":"Feature","geometry":{"type":"Point","coordinates":[121.8687456,24.9050658]},"properties":{"id":"tra_guishan","name":"龜山","network":"tra","color":"#6B7280"}},{"type":"Feature","geometry":{"type":"Point","coordinates":[121.9225152,24.9667612]},"properties":{"id":"tra_dali","name":"大里","network":"tra","color":"#6B7280"}},{"type":"Feature","geometry":{"type":"Point","coordinates":[121.8669739,25.0388277]},"properties":{"id":"tra_shuangxi","name":"雙溪","network":"tra","color":"#6B7280"}},{"type":"Feature","geometry":{"type":"Point","coordinates":[121.8520609,25.0585151]},"properties":{"id":"tra_mudan","name":"牡丹","network":"tra","color":"#6B7280"}},{"type":"Feature","geometry":{"type":"Point","coordinates":[121.8223757,25.0661013]},"properties":{"id":"tra_sandiaoling","name":"三貂嶺","network":"tra","color":"#6B7280"}},{"type":"Feature","geometry":{"type":"Point","coordinates":[121.8272142,25.0870188]},"properties":{"id":"tra_houtong","name":"猴硐","network":"tra","color":"#6B7280"}},{"type":"Feature","geometry":{"type":"Point","coordinates":[121.8065585,25.1090106]},"properties":{"id":"tra_ruifang","name":"瑞芳","network":"tra","color":"#6B7280"}},{"type":"Feature","geometry":{"type":"Point","coordinates":[121.7618206,25.1026362]},"properties":{"id":"tra_sijiaoting","name":"四腳亭","network":"tra","color":"#6B7280"}},{"type":"Feature","geometry":{"type":"Point","coordinates":[121.7407264,25.1022172]},"properties":{"id":"tra_nuannuan","name":"暖暖","network":"tra","color":"#6B7280"}},{"type":"Feature","geometry":{"type":"Point","coordinates":[121.7138567,25.0929751]},"properties":{"id":"tra_qidu","name":"七堵","network":"tra","color":"#6B7280"}},{"type":"Feature","geometry":{"type":"Point","coordinates":[121.6676308,25.0779051]},"properties":{"id":"tra_wudu","name":"五堵","network":"tra","color":"#6B7280"}},{"type":"Feature","geometry":{"type":"Point","coordinates":[121.6486238,25.0628293]},"properties":{"id":"tra_xike","name":"汐科","network":"tra","color":"#6B7280"}},{"type":"Feature","geometry":{"type":"Point","coordinates":[121.6606848,25.0674211]},"properties":{"id":"tra_xizhi","name":"汐止","network":"tra","color":"#6B7280"}},{"type":"Feature","geometry":{"type":"Point","coordinates":[121.9445761,25.015692]},"properties":{"id":"tra_fulong","name":"福隆","network":"tra","color":"#6B7280"}},{"type":"Feature","geometry":{"type":"Point","coordinates":[121.7742103,24.7060004]},"properties":{"id":"tra_erjie","name":"二結","network":"tra","color":"#6B7280"}},{"type":"Feature","geometry":{"type":"Point","coordinates":[121.7745987,24.6779776]},"properties":{"id":"tra_luodong","name":"羅東","network":"tra","color":"#6B7280"}},{"type":"Feature","geometry":{"type":"Point","coordinates":[121.4188366,23.7120001]},"properties":{"id":"tra_wanrong","name":"萬榮","network":"tra","color":"#6B7280"}},{"type":"Feature","geometry":{"type":"Point","coordinates":[121.3802659,23.5803194]},"properties":{"id":"tra_fuyuan","name":"富源","network":"tra","color":"#6B7280"}},{"type":"Feature","geometry":{"type":"Point","coordinates":[121.3765669,23.497742]},"properties":{"id":"tra_ruisui","name":"瑞穗","network":"tra","color":"#6B7280"}},{"type":"Feature","geometry":{"type":"Point","coordinates":[121.3452414,23.4246636]},"properties":{"id":"tra_sanmin","name":"三民","network":"tra","color":"#6B7280"}},{"type":"Feature","geometry":{"type":"Point","coordinates":[120.733107,24.3092058]},"properties":{"id":"tra_houli","name":"后里","network":"tra","color":"#6B7280"}},{"type":"Feature","geometry":{"type":"Point","coordinates":[120.7860071,24.4863255]},"properties":{"id":"tra_tongluo","name":"銅鑼","network":"tra","color":"#6B7280"}},{"type":"Feature","geometry":{"type":"Point","coordinates":[120.8222649,24.5692318]},"properties":{"id":"tra_miaoli","name":"苗栗","network":"tra","color":"#6B7280"}},{"type":"Feature","geometry":{"type":"Point","coordinates":[120.7742376,24.4205666]},"properties":{"id":"tra_sanyi","name":"三義","network":"tra","color":"#6B7280"}},{"type":"Feature","geometry":{"type":"Point","coordinates":[120.5915688,23.8583694]},"properties":{"id":"tra_tianzhong","name":"田中","network":"tra","color":"#6B7280"}},{"type":"Feature","geometry":{"type":"Point","coordinates":[120.481102,23.6726985]},"properties":{"id":"tra_dounan","name":"斗南","network":"tra","color":"#6B7280"}},{"type":"Feature","geometry":{"type":"Point","coordinates":[120.6955034,24.5402681]},"properties":{"id":"tra_xinpu","name":"新埔","network":"tra","color":"#6B7280"}},{"type":"Feature","geometry":{"type":"Point","coordinates":[121.4362698,24.9668719]},"properties":{"id":"tp_BL02","name":"永寧","network":"taipei_mrt","color":"#0070BD"}},{"type":"Feature","geometry":{"type":"Point","coordinates":[121.444391,24.9731817]},"properties":{"id":"tp_BL03","name":"土城","network":"taipei_mrt","color":"#0070BD"}},{"type":"Feature","geometry":{"type":"Point","coordinates":[121.5673156,25.0821916]},"properties":{"id":"tp_BR16","name":"西湖","network":"taipei_mrt","color":"#0070BD"}},{"type":"Feature","geometry":{"type":"Point","coordinates":[121.7420983,25.1222174]},"properties":{"id":"tra_sankeng","name":"三坑","network":"tra","color":"#6B7280"}},{"type":"Feature","geometry":{"type":"Point","coordinates":[121.7392299,25.1330324]},"properties":{"id":"tra_keelung","name":"基隆","network":"tra","color":"#6B7280"}},{"type":"Feature","geometry":{"type":"Point","coordinates":[121.043748,24.9028021]},"properties":{"id":"tra_hukou","name":"湖口","network":"tra","color":"#6B7280"}},{"type":"Feature","geometry":{"type":"Point","coordinates":[120.9965344,24.8692766]},"properties":{"id":"tra_xinfeng","name":"新豐","network":"tra","color":"#6B7280"}},{"type":"Feature","geometry":{"type":"Point","coordinates":[120.704792,23.8345345]},"properties":{"id":"tra_zhuoshui","name":"濁水","network":"tra","color":"#6B7280"}},{"type":"Feature","geometry":{"type":"Point","coordinates":[120.8036297,24.6456915]},"properties":{"id":"tra_dashan","name":"大山","network":"tra","color":"#6B7280"}},{"type":"Feature","geometry":{"type":"Point","coordinates":[120.3910467,22.6404643]},"properties":{"id":"tra_houzhuang","name":"後庄","network":"tra","color":"#6B7280"}},{"type":"Feature","geometry":{"type":"Point","coordinates":[121.5570598,25.0054814]},"properties":{"id":"tp_BR05","name":"辛亥","network":"taipei_mrt","color":"#0070BD"}},{"type":"Feature","geometry":{"type":"Point","coordinates":[121.558138,24.9994306]},"properties":{"id":"tp_BR04","name":"萬芳醫院","network":"taipei_mrt","color":"#0070BD"}},{"type":"Feature","geometry":{"type":"Point","coordinates":[121.5681226,24.9986089]},"properties":{"id":"tp_BR03","name":"萬芳社區","network":"taipei_mrt","color":"#0070BD"}},{"type":"Feature","geometry":{"type":"Point","coordinates":[121.5731834,24.9982458]},"properties":{"id":"tp_BR02","name":"木柵","network":"taipei_mrt","color":"#0070BD"}},{"type":"Feature","geometry":{"type":"Point","coordinates":[121.5794478,24.9983168]},"properties":{"id":"tp_BR01","name":"動物園","network":"taipei_mrt","color":"#0070BD"}},{"type":"Feature","geometry":{"type":"Point","coordinates":[121.5589054,25.0184395]},"properties":{"id":"tp_BR06","name":"麟光","network":"taipei_mrt","color":"#0070BD"}},{"type":"Feature","geometry":{"type":"Point","coordinates":[121.7484854,25.0295899]},"properties":{"id":"tra_lingjiao","name":"嶺腳","network":"tra","color":"#6B7280"}},{"type":"Feature","geometry":{"type":"Point","coordinates":[121.7635976,25.0345064]},"properties":{"id":"tra_wanggu","name":"望古","network":"tra","color":"#6B7280"}},{"type":"Feature","geometry":{"type":"Point","coordinates":[121.7752471,25.0410902]},"properties":{"id":"tra_shifen","name":"十分","network":"tra","color":"#6B7280"}},{"type":"Feature","geometry":{"type":"Point","coordinates":[120.7817416,24.3880295]},"properties":{"id":"tra_shengxing","name":"勝興","network":"tra","color":"#6B7280"}},{"type":"Feature","geometry":{"type":"Point","coordinates":[120.7492097,24.3225724]},"properties":{"id":"tra_tai_an","name":"泰安","network":"tra","color":"#6B7280"}},{"type":"Feature","geometry":{"type":"Point","coordinates":[120.7756342,24.3611632]},"properties":{"id":"tra_yutengping","name":"魚藤坪","network":"tra","color":"#6B7280"}},{"type":"Feature","geometry":{"type":"Point","coordinates":[120.3996323,23.4337049]},"properties":{"id":"tra_shuishang","name":"水上","network":"tra","color":"#6B7280"}},{"type":"Feature","geometry":{"type":"Point","coordinates":[120.5605718,23.9900522]},"properties":{"id":"tra_dacun","name":"大村","network":"tra","color":"#6B7280"}},{"type":"Feature","geometry":{"type":"Point","coordinates":[120.537228,24.0249917]},"properties":{"id":"tra_huatan","name":"花壇","network":"tra","color":"#6B7280"}},{"type":"Feature","geometry":{"type":"Point","coordinates":[120.6183999,23.813291]},"properties":{"id":"tra_ershui","name":"二水","network":"tra","color":"#6B7280"}},{"type":"Feature","geometry":{"type":"Point","coordinates":[120.6487741,24.1194255]},"properties":{"id":"tra_daqing","name":"大慶","network":"tra","color":"#6B7280"}},{"type":"Feature","geometry":{"type":"Point","coordinates":[120.6145629,23.7597748]},"properties":{"id":"tra_linnei","name":"林內","network":"tra","color":"#6B7280"}},{"type":"Feature","geometry":{"type":"Point","coordinates":[120.9420192,22.4609113]},"properties":{"id":"tra_longxi","name":"瀧溪","network":"tra","color":"#6B7280"}},{"type":"Feature","geometry":{"type":"Point","coordinates":[121.004692,22.6189626]},"properties":{"id":"tra_taimali","name":"太麻里","network":"tra","color":"#6B7280"}},{"type":"Feature","geometry":{"type":"Point","coordinates":[120.5952894,22.3682489]},"properties":{"id":"tra_fangliao","name":"枋寮","network":"tra","color":"#6B7280"}},{"type":"Feature","geometry":{"type":"Point","coordinates":[120.9006493,22.3654846]},"properties":{"id":"tra_dawu","name":"大武","network":"tra","color":"#6B7280"}},{"type":"Feature","geometry":{"type":"Point","coordinates":[120.967496,22.5313295]},"properties":{"id":"tra_jinlun","name":"金崙","network":"tra","color":"#6B7280"}},{"type":"Feature","geometry":{"type":"Point","coordinates":[120.6249792,22.330937]},"properties":{"id":"tra_jialu","name":"加祿","network":"tra","color":"#6B7280"}},{"type":"Feature","geometry":{"type":"Point","coordinates":[120.5475793,22.4138262]},"properties":{"id":"tra_jiadong","name":"佳冬","network":"tra","color":"#6B7280"}},{"type":"Feature","geometry":{"type":"Point","coordinates":[120.5265105,22.6162442]},"properties":{"id":"tra_xishi","name":"西勢","network":"tra","color":"#6B7280"}},{"type":"Feature","geometry":{"type":"Point","coordinates":[120.5150275,22.4314927]},"properties":{"id":"tra_linbian","name":"林邊","network":"tra","color":"#6B7280"}},{"type":"Feature","geometry":{"type":"Point","coordinates":[120.5120035,22.4918686]},"properties":{"id":"tra_nanzhou","name":"南州","network":"tra","color":"#6B7280"}},{"type":"Feature","geometry":{"type":"Point","coordinates":[121.1826789,24.7053464]},"properties":{"id":"tra_neiwan","name":"內灣","network":"tra","color":"#6B7280"}},{"type":"Feature","geometry":{"type":"Point","coordinates":[120.2863296,22.9238769]},"properties":{"id":"tra_shalun","name":"沙崙","network":"tra","color":"#6B7280"}},{"type":"Feature","geometry":{"type":"Point","coordinates":[120.2723678,22.9071796]},"properties":{"id":"tra_chang_jung_christian_university","name":"長榮大學","network":"tra","color":"#6B7280"}},{"type":"Feature","geometry":{"type":"Point","coordinates":[120.7169938,22.2808724]},"properties":{"id":"tra_fangye","name":"枋野","network":"tra","color":"#6B7280"}},{"type":"Feature","geometry":{"type":"Point","coordinates":[121.2583532,24.9725599]},"properties":{"id":"tra_neili","name":"內壢","network":"tra","color":"#6B7280"}},{"type":"Feature","geometry":{"type":"Point","coordinates":[121.2164356,24.9800328]},"properties":{"id":"ty_A20","name":"興南","network":"taoyuan_mrt","color":"#9B1F6E"}},{"type":"Feature","geometry":{"type":"Point","coordinates":[121.2032715,25.0017441]},"properties":{"id":"ty_A19","name":"桃園體育園區","network":"taoyuan_mrt","color":"#9B1F6E"}},{"type":"Feature","geometry":{"type":"Point","coordinates":[121.2210937,25.0241007]},"properties":{"id":"ty_A17","name":"領航","network":"taoyuan_mrt","color":"#9B1F6E"}},{"type":"Feature","geometry":{"type":"Point","coordinates":[121.2141381,25.0137163]},"properties":{"id":"ty_A18","name":"高鐵桃園站","network":"taoyuan_mrt","color":"#9B1F6E"}},{"type":"Feature","geometry":{"type":"Point","coordinates":[121.2157962,25.0364919]},"properties":{"id":"ty_A16","name":"橫山","network":"taoyuan_mrt","color":"#9B1F6E"}},{"type":"Feature","geometry":{"type":"Point","coordinates":[121.1465072,24.9143522]},"properties":{"id":"tra_yangmei","name":"楊梅","network":"tra","color":"#6B7280"}},{"type":"Feature","geometry":{"type":"Point","coordinates":[120.6705879,24.1736991]},"properties":{"id":"tc_107","name":"文心中清","network":"taichung_mrt","color":"#00A94F"}},{"type":"Feature","geometry":{"type":"Point","coordinates":[121.4999266,25.0334399]},"properties":{"id":"tra_wanhua","name":"萬華","network":"tra","color":"#6B7280"}},{"type":"Feature","geometry":{"type":"Point","coordinates":[121.4447619,25.0041917]},"properties":{"id":"tra_fuzhou","name":"浮洲","network":"tra","color":"#6B7280"}},{"type":"Feature","geometry":{"type":"Point","coordinates":[120.8807486,24.6865595]},"properties":{"id":"tra_zhunan","name":"竹南","network":"tra","color":"#6B7280"}},{"type":"Feature","geometry":{"type":"Point","coordinates":[121.0949025,24.7383207]},"properties":{"id":"tra_zhudong","name":"竹東","network":"tra","color":"#6B7280"}},{"type":"Feature","geometry":{"type":"Point","coordinates":[121.1371405,22.9123929]},"properties":{"id":"tra_luye","name":"鹿野","network":"tra","color":"#6B7280"}},{"type":"Feature","geometry":{"type":"Point","coordinates":[121.1379913,22.8618154]},"properties":{"id":"tra_shanli","name":"山里","network":"tra","color":"#6B7280"}},{"type":"Feature","geometry":{"type":"Point","coordinates":[121.2484471,23.1791523]},"properties":{"id":"tra_fuli","name":"富里","network":"tra","color":"#6B7280"}},{"type":"Feature","geometry":{"type":"Point","coordinates":[121.5331615,25.0594133]},"properties":{"id":"tp_O09","name":"行天宮","network":"taipei_mrt","color":"#0070BD"}},{"type":"Feature","geometry":{"type":"Point","coordinates":[121.5330358,25.0520141]},"properties":{"id":"tp_O08","name":"松江南京","network":"taipei_mrt","color":"#0070BD"}},{"type":"Feature","geometry":{"type":"Point","coordinates":[121.00341,24.8066166]},"properties":{"id":"tra_qianjia","name":"千甲","network":"tra","color":"#6B7280"}},{"type":"Feature","geometry":{"type":"Point","coordinates":[120.9837899,24.8086305]},"properties":{"id":"tra_north_hsinchu","name":"北新竹","network":"tra","color":"#6B7280"}},{"type":"Feature","geometry":{"type":"Point","coordinates":[121.0219578,24.7880929]},"properties":{"id":"tra_xinzhuang","name":"新莊","network":"tra","color":"#6B7280"}},{"type":"Feature","geometry":{"type":"Point","coordinates":[120.316465,23.3001332]},"properties":{"id":"tra_zhongxing","name":"中興車站","network":"tra","color":"#6B7280"}},{"type":"Feature","geometry":{"type":"Point","coordinates":[120.3225151,23.2774311]},"properties":{"id":"tra_liuying","name":"柳營","network":"tra","color":"#6B7280"}},{"type":"Feature","geometry":{"type":"Point","coordinates":[121.5781643,25.0491542]},"properties":{"id":"tra_songshan","name":"松山","network":"tra","color":"#6B7280"}},{"type":"Feature","geometry":{"type":"Point","coordinates":[121.5474402,25.0798652]},"properties":{"id":"tp_BR14","name":"大直","network":"taipei_mrt","color":"#0070BD"}},{"type":"Feature","geometry":{"type":"Point","coordinates":[120.7914276,24.5226332]},"properties":{"id":"tra_nanshi","name":"南勢","network":"tra","color":"#6B7280"}},{"type":"Feature","geometry":{"type":"Point","coordinates":[120.4709579,23.6395621]},"properties":{"id":"tra_shigui","name":"石龜","network":"tra","color":"#6B7280"}},{"type":"Feature","geometry":{"type":"Point","coordinates":[120.5397507,22.5865768]},"properties":{"id":"tra_zhutian","name":"竹田","network":"tra","color":"#6B7280"}},{"type":"Feature","geometry":{"type":"Point","coordinates":[120.8582251,24.6565554]},"properties":{"id":"tra_tanwen","name":"談文","network":"tra","color":"#6B7280"}},{"type":"Feature","geometry":{"type":"Point","coordinates":[120.8659221,23.8324779]},"properties":{"id":"tra_checheng","name":"車埕","network":"tra","color":"#6B7280"}},{"type":"Feature","geometry":{"type":"Point","coordinates":[120.7849582,23.8262675]},"properties":{"id":"tra_jiji","name":"集集","network":"tra","color":"#6B7280"}},{"type":"Feature","geometry":{"type":"Point","coordinates":[120.7500417,23.8352758]},"properties":{"id":"tra_longquan","name":"龍泉","network":"tra","color":"#6B7280"}},{"type":"Feature","geometry":{"type":"Point","coordinates":[121.5292584,25.0338425]},"properties":{"id":"tp_O06","name":"東門","network":"taipei_mrt","color":"#0070BD"}},{"type":"Feature","geometry":{"type":"Point","coordinates":[121.6172189,25.0545687]},"properties":{"id":"tp_BL23","name":"南港展覽館","network":"taipei_mrt","color":"#0070BD"}},{"type":"Feature","geometry":{"type":"Point","coordinates":[121.2194323,23.1263204]},"properties":{"id":"tra_chishang","name":"池上","network":"tra","color":"#6B7280"}},{"type":"Feature","geometry":{"type":"Point","coordinates":[121.0559002,24.9224913]},"properties":{"id":"tra_beihu","name":"北湖","network":"tra","color":"#6B7280"}},{"type":"Feature","geometry":{"type":"Point","coordinates":[120.2526302,22.9039058]},"properties":{"id":"tra_zhongzhou","name":"中洲","network":"tra","color":"#6B7280"}},{"type":"Feature","geometry":{"type":"Point","coordinates":[121.5249012,24.9903315]},"properties":{"id":"nt_Y09","name":"秀朗橋","network":"new_taipei_mrt","color":"#7B5EA7"}},{"type":"Feature","geometry":{"type":"Point","coordinates":[121.4842739,25.0081782]},"properties":{"id":"nt_Y14","name":"中原","network":"new_taipei_mrt","color":"#7B5EA7"}},{"type":"Feature","geometry":{"type":"Point","coordinates":[121.4603193,25.0399026]},"properties":{"id":"nt_Y18","name":"頭前庄","network":"new_taipei_mrt","color":"#7B5EA7"}},{"type":"Feature","geometry":{"type":"Point","coordinates":[121.4598089,25.0612686]},"properties":{"id":"nt_Y20","name":"新北產業園區","network":"new_taipei_mrt","color":"#7B5EA7"}},{"type":"Feature","geometry":{"type":"Point","coordinates":[121.1359862,24.7203987]},"properties":{"id":"tra_jiuzantou","name":"九讚頭","network":"tra","color":"#6B7280"}},{"type":"Feature","geometry":{"type":"Point","coordinates":[120.6343411,24.1109492]},"properties":{"id":"tc_117","name":"九德","network":"taichung_mrt","color":"#00A94F"}},{"type":"Feature","geometry":{"type":"Point","coordinates":[121.0828217,24.9340905]},"properties":{"id":"tra_fugang","name":"富岡","network":"tra","color":"#6B7280"}},{"type":"Feature","geometry":{"type":"Point","coordinates":[121.459967,25.0499888]},"properties":{"id":"nt_Y19","name":"幸福","network":"new_taipei_mrt","color":"#7B5EA7"}},{"type":"Feature","geometry":{"type":"Point","coordinates":[121.4083869,24.9803684]},"properties":{"id":"tra_south_shulin","name":"南樹林","network":"tra","color":"#6B7280"}},{"type":"Feature","geometry":{"type":"Point","coordinates":[121.9088262,25.0218121]},"properties":{"id":"tra_gongliao","name":"貢寮","network":"tra","color":"#6B7280"}},{"type":"Feature","geometry":{"type":"Point","coordinates":[120.2405179,22.9233962]},"properties":{"id":"tra_rende","name":"仁德","network":"tra","color":"#6B7280"}},{"type":"Feature","geometry":{"type":"Point","coordinates":[120.4316823,23.5552283]},"properties":{"id":"tra_minxiong","name":"民雄","network":"tra","color":"#6B7280"}},{"type":"Feature","geometry":{"type":"Point","coordinates":[121.4666661,25.0261266]},"properties":{"id":"nt_Y17","name":"新埔民生","network":"new_taipei_mrt","color":"#7B5EA7"}},{"type":"Feature","geometry":{"type":"Point","coordinates":[121.464592,25.0151874]},"properties":{"id":"nt_Y16","name":"板橋","network":"new_taipei_mrt","color":"#7B5EA7"}},{"type":"Feature","geometry":{"type":"Point","coordinates":[121.5275892,24.9844703]},"properties":{"id":"nt_Y08","name":"十四張","network":"new_taipei_mrt","color":"#7B5EA7"}},{"type":"Feature","geometry":{"type":"Point","coordinates":[121.5161735,24.9921502]},"properties":{"id":"nt_Y10","name":"景平","network":"new_taipei_mrt","color":"#7B5EA7"}},{"type":"Feature","geometry":{"type":"Point","coordinates":[121.472418,25.0145313]},"properties":{"id":"nt_Y15","name":"板新","network":"new_taipei_mrt","color":"#7B5EA7"}},{"type":"Feature","geometry":{"type":"Point","coordinates":[121.8898064,24.9383628]},"properties":{"id":"tra_daxi","name":"大溪","network":"tra","color":"#6B7280"}},{"type":"Feature","geometry":{"type":"Point","coordinates":[121.5941892,25.0834972]},"properties":{"id":"tp_BR19","name":"內湖","network":"taipei_mrt","color":"#0070BD"}},{"type":"Feature","geometry":{"type":"Point","coordinates":[121.5161808,25.0416464]},"properties":{"id":"tp_R09","name":"台大醫院","network":"taipei_mrt","color":"#0070BD"}},{"type":"Feature","geometry":{"type":"Point","coordinates":[120.6421333,23.7984833]},"properties":{"id":"tra_yuanquan","name":"源泉","network":"tra","color":"#6B7280"}},{"type":"Feature","geometry":{"type":"Point","coordinates":[121.8029581,25.135287]},"properties":{"id":"tra_badouzi","name":"八斗子","network":"tra","color":"#6B7280"}},{"type":"Feature","geometry":{"type":"Point","coordinates":[120.5696323,23.9593485]},"properties":{"id":"tra_yuanlin","name":"員林","network":"tra","color":"#6B7280"}},{"type":"Feature","geometry":{"type":"Point","coordinates":[121.5103289,25.0493991]},"properties":{"id":"tp_G13","name":"北門","network":"taipei_mrt","color":"#0070BD"}},{"type":"Feature","geometry":{"type":"Point","coordinates":[120.3868344,23.4131904]},"properties":{"id":"tra_nanjing","name":"南靖","network":"tra","color":"#6B7280"}},{"type":"Feature","geometry":{"type":"Point","coordinates":[120.4415839,23.4799042]},"properties":{"id":"tra_chiayi","name":"嘉義","network":"tra","color":"#6B7280"}},{"type":"Feature","geometry":{"type":"Point","coordinates":[120.4484233,23.4998419]},"properties":{"id":"tra_jiabei","name":"嘉北","network":"tra","color":"#6B7280"}},{"type":"Feature","geometry":{"type":"Point","coordinates":[120.6999517,24.1641899]},"properties":{"id":"tra_taiyuan","name":"太原","network":"tra","color":"#6B7280"}},{"type":"Feature","geometry":{"type":"Point","coordinates":[120.8674346,24.641736]},"properties":{"id":"tra_zaoqiao","name":"造橋","network":"tra","color":"#6B7280"}},{"type":"Feature","geometry":{"type":"Point","coordinates":[120.971678,24.8014026]},"properties":{"id":"tra_hsinchu","name":"新竹","network":"tra","color":"#6B7280"}},{"type":"Feature","geometry":{"type":"Point","coordinates":[120.6272898,24.3442542]},"properties":{"id":"tra_dajia","name":"大甲","network":"tra","color":"#6B7280"}},{"type":"Feature","geometry":{"type":"Point","coordinates":[120.6026813,24.304341]},"properties":{"id":"tra_taichung_port","name":"臺中港","network":"tra","color":"#6B7280"}},{"type":"Feature","geometry":{"type":"Point","coordinates":[120.5688397,24.2635258]},"properties":{"id":"tra_qingshui","name":"清水","network":"tra","color":"#6B7280"}},{"type":"Feature","geometry":{"type":"Point","coordinates":[120.5701241,24.1202267]},"properties":{"id":"tra_zhuifen","name":"追分","network":"tra","color":"#6B7280"}},{"type":"Feature","geometry":{"type":"Point","coordinates":[120.6142522,24.1097839]},"properties":{"id":"tra_xinwuri","name":"新烏日","network":"tra","color":"#6B7280"}},{"type":"Feature","geometry":{"type":"Point","coordinates":[120.5431394,24.1975317]},"properties":{"id":"tra_longjing","name":"龍井","network":"tra","color":"#6B7280"}},{"type":"Feature","geometry":{"type":"Point","coordinates":[120.5573677,24.2371296]},"properties":{"id":"tra_shalu","name":"沙鹿","network":"tra","color":"#6B7280"}},{"type":"Feature","geometry":{"type":"Point","coordinates":[121.5376308,24.9580672]},"properties":{"id":"tp_G01","name":"新店","network":"taipei_mrt","color":"#0070BD"}},{"type":"Feature","geometry":{"type":"Point","coordinates":[121.5697576,25.0328676]},"properties":{"id":"tp_R02","name":"象山","network":"taipei_mrt","color":"#0070BD"}},{"type":"Feature","geometry":{"type":"Point","coordinates":[121.5527328,25.0331302]},"properties":{"id":"tp_R04","name":"信義安和","network":"taipei_mrt","color":"#0070BD"}},{"type":"Feature","geometry":{"type":"Point","coordinates":[121.5435546,25.0333294]},"properties":{"id":"tp_BR09","name":"大安","network":"taipei_mrt","color":"#0070BD"}},{"type":"Feature","geometry":{"type":"Point","coordinates":[121.5352793,25.0335619]},"properties":{"id":"tp_R06","name":"大安森林公園","network":"taipei_mrt","color":"#0070BD"}},{"type":"Feature","geometry":{"type":"Point","coordinates":[121.5177618,25.0333942]},"properties":{"id":"tp_R08","name":"中正紀念堂","network":"taipei_mrt","color":"#0070BD"}},{"type":"Feature","geometry":{"type":"Point","coordinates":[121.5174745,25.0462432]},"properties":{"id":"tp_R10","name":"台北車站","network":"taipei_mrt","color":"#0070BD"}},{"type":"Feature","geometry":{"type":"Point","coordinates":[121.5203914,25.0526256]},"properties":{"id":"tp_R11","name":"中山","network":"taipei_mrt","color":"#0070BD"}},{"type":"Feature","geometry":{"type":"Point","coordinates":[121.5206986,25.057632]},"properties":{"id":"tp_R12","name":"雙連","network":"taipei_mrt","color":"#0070BD"}},{"type":"Feature","geometry":{"type":"Point","coordinates":[121.519403,25.0628506]},"properties":{"id":"tp_R13","name":"民權西路","network":"taipei_mrt","color":"#0070BD"}},{"type":"Feature","geometry":{"type":"Point","coordinates":[121.5201361,25.0714175]},"properties":{"id":"tp_R14","name":"圓山","network":"taipei_mrt","color":"#0070BD"}},{"type":"Feature","geometry":{"type":"Point","coordinates":[121.5249806,25.0842913]},"properties":{"id":"tp_R15","name":"劍潭","network":"taipei_mrt","color":"#0070BD"}},{"type":"Feature","geometry":{"type":"Point","coordinates":[121.5262468,25.0934949]},"properties":{"id":"tp_R16","name":"士林","network":"taipei_mrt","color":"#0070BD"}},{"type":"Feature","geometry":{"type":"Point","coordinates":[121.5225195,25.1030034]},"properties":{"id":"tp_R17","name":"芝山","network":"taipei_mrt","color":"#0070BD"}},{"type":"Feature","geometry":{"type":"Point","coordinates":[121.5187693,25.1098593]},"properties":{"id":"tp_R18","name":"明德","network":"taipei_mrt","color":"#0070BD"}},{"type":"Feature","geometry":{"type":"Point","coordinates":[121.5155232,25.1146071]},"properties":{"id":"tp_R19","name":"石牌","network":"taipei_mrt","color":"#0070BD"}},{"type":"Feature","geometry":{"type":"Point","coordinates":[121.5061304,25.1209048]},"properties":{"id":"tp_R20","name":"唭哩岸","network":"taipei_mrt","color":"#0070BD"}},{"type":"Feature","geometry":{"type":"Point","coordinates":[121.5011369,25.1256031]},"properties":{"id":"tp_R21","name":"奇岩","network":"taipei_mrt","color":"#0070BD"}},{"type":"Feature","geometry":{"type":"Point","coordinates":[121.4985934,25.1319307]},"properties":{"id":"tp_R22","name":"北投","network":"taipei_mrt","color":"#0070BD"}},{"type":"Feature","geometry":{"type":"Point","coordinates":[121.4854979,25.1374895]},"properties":{"id":"tp_R23","name":"復興崗","network":"taipei_mrt","color":"#0070BD"}},{"type":"Feature","geometry":{"type":"Point","coordinates":[121.473374,25.1309506]},"properties":{"id":"tp_R24","name":"忠義","network":"taipei_mrt","color":"#0070BD"}},{"type":"Feature","geometry":{"type":"Point","coordinates":[121.4671419,25.1257006]},"properties":{"id":"tp_R25","name":"關渡","network":"taipei_mrt","color":"#0070BD"}},{"type":"Feature","geometry":{"type":"Point","coordinates":[121.4595099,25.1369727]},"properties":{"id":"tp_R26","name":"竹圍","network":"taipei_mrt","color":"#0070BD"}},{"type":"Feature","geometry":{"type":"Point","coordinates":[121.4588321,25.1544087]},"properties":{"id":"tp_R27","name":"紅樹林","network":"taipei_mrt","color":"#0070BD"}},{"type":"Feature","geometry":{"type":"Point","coordinates":[121.4455744,25.1677828]},"properties":{"id":"tp_R28","name":"淡水","network":"taipei_mrt","color":"#0070BD"}},{"type":"Feature","geometry":{"type":"Point","coordinates":[121.5531211,25.0238183]},"properties":{"id":"tp_BR07","name":"六張犁","network":"taipei_mrt","color":"#0070BD"}},{"type":"Feature","geometry":{"type":"Point","coordinates":[121.5434596,25.0261012]},"properties":{"id":"tp_BR08","name":"科技大樓","network":"taipei_mrt","color":"#0070BD"}},{"type":"Feature","geometry":{"type":"Point","coordinates":[121.5437706,25.0415409]},"properties":{"id":"tp_BR10","name":"忠孝復興","network":"taipei_mrt","color":"#0070BD"}},{"type":"Feature","geometry":{"type":"Point","coordinates":[121.5439651,25.051836]},"properties":{"id":"tp_BR11","name":"南京復興","network":"taipei_mrt","color":"#0070BD"}},{"type":"Feature","geometry":{"type":"Point","coordinates":[121.5442019,25.0606868]},"properties":{"id":"tp_BR12","name":"中山國中","network":"taipei_mrt","color":"#0070BD"}},{"type":"Feature","geometry":{"type":"Point","coordinates":[121.5516137,25.063086]},"properties":{"id":"tp_BR13","name":"松山機場","network":"taipei_mrt","color":"#0070BD"}},{"type":"Feature","geometry":{"type":"Point","coordinates":[121.5556531,25.0848493]},"properties":{"id":"tp_BR15","name":"劍南路","network":"taipei_mrt","color":"#0070BD"}},{"type":"Feature","geometry":{"type":"Point","coordinates":[121.5752034,25.0800727]},"properties":{"id":"tp_BR17","name":"港墘","network":"taipei_mrt","color":"#0070BD"}},{"type":"Feature","geometry":{"type":"Point","coordinates":[121.5849416,25.0785562]},"properties":{"id":"tp_BR18","name":"文德","network":"taipei_mrt","color":"#0070BD"}},{"type":"Feature","geometry":{"type":"Point","coordinates":[121.602341,25.0837613]},"properties":{"id":"tp_BR20","name":"大湖公園","network":"taipei_mrt","color":"#0070BD"}},{"type":"Feature","geometry":{"type":"Point","coordinates":[121.6073633,25.0726385]},"properties":{"id":"tp_BR21","name":"葫洲","network":"taipei_mrt","color":"#0070BD"}},{"type":"Feature","geometry":{"type":"Point","coordinates":[121.6116099,25.0674198]},"properties":{"id":"tp_BR22","name":"東湖","network":"taipei_mrt","color":"#0070BD"}},{"type":"Feature","geometry":{"type":"Point","coordinates":[121.6158969,25.0599458]},"properties":{"id":"tp_BR23","name":"南港軟體園區","network":"taipei_mrt","color":"#0070BD"}},{"type":"Feature","geometry":{"type":"Point","coordinates":[121.617896,25.0553158]},"properties":{"id":"tp_BR24","name":"南港展覽館","network":"taipei_mrt","color":"#0070BD"}},{"type":"Feature","geometry":{"type":"Point","coordinates":[121.5413511,24.9673862]},"properties":{"id":"tp_G02","name":"新店區公所","network":"taipei_mrt","color":"#0070BD"}},{"type":"Feature","geometry":{"type":"Point","coordinates":[121.5429203,24.9750221]},"properties":{"id":"tp_G03","name":"七張","network":"taipei_mrt","color":"#0070BD"}},{"type":"Feature","geometry":{"type":"Point","coordinates":[121.5413291,24.9829295]},"properties":{"id":"tp_G04","name":"大坪林","network":"taipei_mrt","color":"#0070BD"}},{"type":"Feature","geometry":{"type":"Point","coordinates":[121.4589414,25.061706]},"properties":{"id":"ty_A3","name":"新北產業園區","network":"taoyuan_mrt","color":"#9B1F6E"}},{"type":"Feature","geometry":{"type":"Point","coordinates":[121.5660998,25.0411283]},"properties":{"id":"tp_BL18","name":"市政府","network":"taipei_mrt","color":"#0070BD"}},{"type":"Feature","geometry":{"type":"Point","coordinates":[121.1773012,23.1021207]},"properties":{"id":"tra_haiduan","name":"海端","network":"tra","color":"#6B7280"}},{"type":"Feature","geometry":{"type":"Point","coordinates":[121.1644913,23.0456214]},"properties":{"id":"tra_guanshan","name":"關山","network":"tra","color":"#6B7280"}},{"type":"Feature","geometry":{"type":"Point","coordinates":[121.1592121,22.9560275]},"properties":{"id":"tra_ruiyuan","name":"瑞源","network":"tra","color":"#6B7280"}},{"type":"Feature","geometry":{"type":"Point","coordinates":[121.5408198,24.992978]},"properties":{"id":"tp_G05","name":"景美","network":"taipei_mrt","color":"#0070BD"}},{"type":"Feature","geometry":{"type":"Point","coordinates":[121.5389958,25.001899]},"properties":{"id":"tp_G06","name":"萬隆","network":"taipei_mrt","color":"#0070BD"}},{"type":"Feature","geometry":{"type":"Point","coordinates":[121.534264,25.0149166]},"properties":{"id":"tp_G07","name":"公館","network":"taipei_mrt","color":"#0070BD"}},{"type":"Feature","geometry":{"type":"Point","coordinates":[121.0394141,24.8071256]},"properties":{"id":"tra_liujia","name":"六家","network":"tra","color":"#6B7280"}},{"type":"Feature","geometry":{"type":"Point","coordinates":[121.5234226,25.0447619]},"properties":{"id":"tp_BL13","name":"善導寺","network":"taipei_mrt","color":"#0070BD"}},{"type":"Feature","geometry":{"type":"Point","coordinates":[120.3427383,22.6341158]},"properties":{"id":"tra_zhengyi","name":"正義","network":"tra","color":"#6B7280"}},{"type":"Feature","geometry":{"type":"Point","coordinates":[120.3150956,22.6387002]},"properties":{"id":"tra_minzu","name":"民族","network":"tra","color":"#6B7280"}},{"type":"Feature","geometry":{"type":"Point","coordinates":[121.4523632,24.9975221]},"properties":{"id":"tp_BL05","name":"亞東醫院","network":"taipei_mrt","color":"#0070BD"}},{"type":"Feature","geometry":{"type":"Point","coordinates":[121.607192,25.0520905]},"properties":{"id":"tp_BL22","name":"南港","network":"taipei_mrt","color":"#0070BD"}},{"type":"Feature","geometry":{"type":"Point","coordinates":[121.5573918,25.0413418]},"properties":{"id":"tp_BL17","name":"國父紀念館","network":"taipei_mrt","color":"#0070BD"}},{"type":"Feature","geometry":{"type":"Point","coordinates":[121.4592803,25.0087697]},"properties":{"id":"tp_BL06","name":"府中","network":"taipei_mrt","color":"#0070BD"}},{"type":"Feature","geometry":{"type":"Point","coordinates":[121.5823224,25.0447413]},"properties":{"id":"tp_BL20","name":"後山埤","network":"taipei_mrt","color":"#0070BD"}},{"type":"Feature","geometry":{"type":"Point","coordinates":[121.549479,25.0415086]},"properties":{"id":"tp_BL16","name":"忠孝敦化","network":"taipei_mrt","color":"#0070BD"}},{"type":"Feature","geometry":{"type":"Point","coordinates":[121.4683057,25.0234603]},"properties":{"id":"tp_BL08","name":"新埔","network":"taipei_mrt","color":"#0070BD"}},{"type":"Feature","geometry":{"type":"Point","coordinates":[121.5933161,25.0504897]},"properties":{"id":"tp_BL21","name":"昆陽","network":"taipei_mrt","color":"#0070BD"}},{"type":"Feature","geometry":{"type":"Point","coordinates":[121.462992,25.0144988]},"properties":{"id":"tp_BL07","name":"板橋","network":"taipei_mrt","color":"#0070BD"}},{"type":"Feature","geometry":{"type":"Point","coordinates":[121.5757045,25.0408761]},"properties":{"id":"tp_BL19","name":"永春","network":"taipei_mrt","color":"#0070BD"}},{"type":"Feature","geometry":{"type":"Point","coordinates":[121.4727783,25.0304238]},"properties":{"id":"tp_BL09","name":"江子翠","network":"taipei_mrt","color":"#0070BD"}},{"type":"Feature","geometry":{"type":"Point","coordinates":[121.4487858,24.9853177]},"properties":{"id":"tp_BL04","name":"海山","network":"taipei_mrt","color":"#0070BD"}},{"type":"Feature","geometry":{"type":"Point","coordinates":[121.5086081,25.0427128]},"properties":{"id":"tp_G12","name":"西門","network":"taipei_mrt","color":"#0070BD"}},{"type":"Feature","geometry":{"type":"Point","coordinates":[121.4194769,24.9597337]},"properties":{"id":"tp_BL01","name":"頂埔","network":"taipei_mrt","color":"#0070BD"}},{"type":"Feature","geometry":{"type":"Point","coordinates":[121.4995813,25.0352844]},"properties":{"id":"tp_BL10","name":"龍山寺","network":"taipei_mrt","color":"#0070BD"}},{"type":"Feature","geometry":{"type":"Point","coordinates":[121.7920744,24.6368241]},"properties":{"id":"tra_dongshan","name":"冬山","network":"tra","color":"#6B7280"}},{"type":"Feature","geometry":{"type":"Point","coordinates":[120.741782,24.3312191]},"properties":{"id":"tra_tai_an_76497","name":"泰安","network":"tra","color":"#6B7280"}},{"type":"Feature","geometry":{"type":"Point","coordinates":[120.6512083,24.443494]},"properties":{"id":"tra_yuanli","name":"苑裡","network":"tra","color":"#6B7280"}},{"type":"Feature","geometry":{"type":"Point","coordinates":[120.5751947,23.8741536]},"properties":{"id":"thsr_changhua","name":"彰化","network":"thsr","color":"#E2001A"}},{"type":"Feature","geometry":{"type":"Point","coordinates":[121.5005513,25.0631779]},"properties":{"id":"tp_O13","name":"台北橋","network":"taipei_mrt","color":"#0070BD"}},{"type":"Feature","geometry":{"type":"Point","coordinates":[121.5170046,25.0479308]},"properties":{"id":"tra_taipei","name":"臺北","network":"tra","color":"#6B7280"}},{"type":"Feature","geometry":{"type":"Point","coordinates":[121.5305995,24.9717696]},"properties":{"id":"tp_G03A","name":"小碧潭","network":"taipei_mrt","color":"#0070BD"}},{"type":"Feature","geometry":{"type":"Point","coordinates":[121.5109003,25.0024105]},"properties":{"id":"tp_O03","name":"永安市場","network":"taipei_mrt","color":"#0070BD"}},{"type":"Feature","geometry":{"type":"Point","coordinates":[121.093311,22.7644726]},"properties":{"id":"tra_kangle","name":"康樂","network":"tra","color":"#6B7280"}},{"type":"Feature","geometry":{"type":"Point","coordinates":[121.4863784,25.076814]},"properties":{"id":"tp_O51","name":"三和國中","network":"taipei_mrt","color":"#0070BD"}},{"type":"Feature","geometry":{"type":"Point","coordinates":[121.4732993,25.0855048]},"properties":{"id":"tp_O53","name":"三民高中","network":"taipei_mrt","color":"#0070BD"}},{"type":"Feature","geometry":{"type":"Point","coordinates":[121.4853768,25.0559777]},"properties":{"id":"tp_O15","name":"三重","network":"taipei_mrt","color":"#0070BD"}},{"type":"Feature","geometry":{"type":"Point","coordinates":[121.4973001,25.0700034]},"properties":{"id":"tp_O50","name":"三重國小","network":"taipei_mrt","color":"#0070BD"}},{"type":"Feature","geometry":{"type":"Point","coordinates":[121.5265984,25.062674]},"properties":{"id":"tp_O10","name":"中山國小","network":"taipei_mrt","color":"#0070BD"}},{"type":"Feature","geometry":{"type":"Point","coordinates":[121.4226568,25.0289264]},"properties":{"id":"tp_O20","name":"丹鳳","network":"taipei_mrt","color":"#0070BD"}},{"type":"Feature","geometry":{"type":"Point","coordinates":[121.4716805,25.0464284]},"properties":{"id":"tp_O16","name":"先嗇宮","network":"taipei_mrt","color":"#0070BD"}},{"type":"Feature","geometry":{"type":"Point","coordinates":[121.5643061,25.0514279]},"properties":{"id":"tp_G18","name":"南京三民","network":"taipei_mrt","color":"#0070BD"}},{"type":"Feature","geometry":{"type":"Point","coordinates":[121.5088518,24.9900264]},"properties":{"id":"tp_O01","name":"南勢角","network":"taipei_mrt","color":"#0070BD"}},{"type":"Feature","geometry":{"type":"Point","coordinates":[121.5229533,25.0264102]},"properties":{"id":"tp_O05","name":"古亭","network":"taipei_mrt","color":"#0070BD"}},{"type":"Feature","geometry":{"type":"Point","coordinates":[121.5514989,25.0516857]},"properties":{"id":"tp_G17","name":"台北小巨蛋","network":"taipei_mrt","color":"#0070BD"}},{"type":"Feature","geometry":{"type":"Point","coordinates":[121.5126944,25.063198]},"properties":{"id":"tp_O12","name":"大橋頭","network":"taipei_mrt","color":"#0070BD"}},{"type":"Feature","geometry":{"type":"Point","coordinates":[121.5108064,25.035901]},"properties":{"id":"tp_G11","name":"小南門","network":"taipei_mrt","color":"#0070BD"}},{"type":"Feature","geometry":{"type":"Point","coordinates":[121.4802265,25.0803359]},"properties":{"id":"tp_O52","name":"徐匯中學","network":"taipei_mrt","color":"#0070BD"}},{"type":"Feature","geometry":{"type":"Point","coordinates":[121.5328383,25.04229]},"properties":{"id":"tp_BL14","name":"忠孝新生","network":"taipei_mrt","color":"#0070BD"}},{"type":"Feature","geometry":{"type":"Point","coordinates":[121.4533591,25.0363332]},"properties":{"id":"tp_O18","name":"新莊","network":"taipei_mrt","color":"#0070BD"}},{"type":"Feature","geometry":{"type":"Point","coordinates":[121.5050464,24.9937859]},"properties":{"id":"tp_O02","name":"景安","network":"taipei_mrt","color":"#0070BD"}},{"type":"Feature","geometry":{"type":"Point","coordinates":[121.5774743,25.0500706]},"properties":{"id":"tp_G19","name":"松山","network":"taipei_mrt","color":"#0070BD"}},{"type":"Feature","geometry":{"type":"Point","coordinates":[121.4921055,25.0602676]},"properties":{"id":"tp_O14","name":"菜寮","network":"taipei_mrt","color":"#0070BD"}},{"type":"Feature","geometry":{"type":"Point","coordinates":[121.465104,25.091278]},"properties":{"id":"tp_O54","name":"蘆洲","network":"taipei_mrt","color":"#0070BD"}},{"type":"Feature","geometry":{"type":"Point","coordinates":[121.4352746,25.032722]},"properties":{"id":"tp_O19","name":"輔大","network":"taipei_mrt","color":"#0070BD"}},{"type":"Feature","geometry":{"type":"Point","coordinates":[121.4119025,25.0220786]},"properties":{"id":"tp_O21","name":"迴龍","network":"taipei_mrt","color":"#0070BD"}},{"type":"Feature","geometry":{"type":"Point","coordinates":[121.515472,25.0136014]},"properties":{"id":"tp_O04","name":"頂溪","network":"taipei_mrt","color":"#0070BD"}},{"type":"Feature","geometry":{"type":"Point","coordinates":[121.4613873,25.0395009]},"properties":{"id":"tp_O17","name":"頭前庄","network":"taipei_mrt","color":"#0070BD"}},{"type":"Feature","geometry":{"type":"Point","coordinates":[120.6159381,24.112099]},"properties":{"id":"thsr_taichung","name":"台中","network":"thsr","color":"#E2001A"}},{"type":"Feature","geometry":{"type":"Point","coordinates":[120.6224069,24.1089116]},"properties":{"id":"tra_wuri","name":"烏日","network":"tra","color":"#6B7280"}},{"type":"Feature","geometry":{"type":"Point","coordinates":[120.4161577,23.7365203]},"properties":{"id":"thsr_yunlin","name":"雲林","network":"thsr","color":"#E2001A"}},{"type":"Feature","geometry":{"type":"Point","coordinates":[120.8256849,24.6055644]},"properties":{"id":"thsr_miaoli","name":"苗栗","network":"thsr","color":"#E2001A"}},{"type":"Feature","geometry":{"type":"Point","coordinates":[121.2782583,23.225984]},"properties":{"id":"tra_dongzhu","name":"東竹","network":"tra","color":"#6B7280"}},{"type":"Feature","geometry":{"type":"Point","coordinates":[121.303996,23.2724277]},"properties":{"id":"tra_dongli","name":"東里","network":"tra","color":"#6B7280"}},{"type":"Feature","geometry":{"type":"Point","coordinates":[121.5170503,25.047554]},"properties":{"id":"thsr_taipei","name":"台北","network":"thsr","color":"#E2001A"}},{"type":"Feature","geometry":{"type":"Point","coordinates":[120.3076744,22.6872433]},"properties":{"id":"thsr_zuoying","name":"左營","network":"thsr","color":"#E2001A"}},{"type":"Feature","geometry":{"type":"Point","coordinates":[121.0402055,24.8082959]},"properties":{"id":"thsr_hsinchu","name":"新竹","network":"thsr","color":"#E2001A"}},{"type":"Feature","geometry":{"type":"Point","coordinates":[120.2864152,22.924673]},"properties":{"id":"thsr_tainan","name":"台南","network":"thsr","color":"#E2001A"}},{"type":"Feature","geometry":{"type":"Point","coordinates":[120.3237915,23.4592368]},"properties":{"id":"thsr_chiayi","name":"嘉義","network":"thsr","color":"#E2001A"}},{"type":"Feature","geometry":{"type":"Point","coordinates":[121.4642616,25.0137054]},"properties":{"id":"thsr_banqiao","name":"板橋","network":"thsr","color":"#E2001A"}},{"type":"Feature","geometry":{"type":"Point","coordinates":[121.754702,24.2978451]},"properties":{"id":"tra_heping","name":"和平","network":"tra","color":"#6B7280"}},{"type":"Feature","geometry":{"type":"Point","coordinates":[121.6407022,24.1280488]},"properties":{"id":"tra_xincheng_taroko","name":"新城 (太魯閣)","network":"tra","color":"#6B7280"}},{"type":"Feature","geometry":{"type":"Point","coordinates":[121.8445574,24.5683884]},"properties":{"id":"tra_yongle","name":"永樂","network":"tra","color":"#6B7280"}},{"type":"Feature","geometry":{"type":"Point","coordinates":[121.7681257,24.3338033]},"properties":{"id":"tra_hanben","name":"漢本","network":"tra","color":"#6B7280"}},{"type":"Feature","geometry":{"type":"Point","coordinates":[121.6013166,24.0326146]},"properties":{"id":"tra_beipu","name":"北埔","network":"tra","color":"#6B7280"}},{"type":"Feature","geometry":{"type":"Point","coordinates":[121.8013418,24.463079]},"properties":{"id":"tra_nan_ao","name":"南澳","network":"tra","color":"#6B7280"}},{"type":"Feature","geometry":{"type":"Point","coordinates":[121.7124635,24.2415832]},"properties":{"id":"tra_heren","name":"和仁","network":"tra","color":"#6B7280"}},{"type":"Feature","geometry":{"type":"Point","coordinates":[121.6556882,24.1717336]},"properties":{"id":"tra_chongde","name":"崇德","network":"tra","color":"#6B7280"}},{"type":"Feature","geometry":{"type":"Point","coordinates":[121.610607,24.0903947]},"properties":{"id":"tra_jingmei","name":"景美","network":"tra","color":"#6B7280"}},{"type":"Feature","geometry":{"type":"Point","coordinates":[121.830712,24.5177786]},"properties":{"id":"tra_dong_ao","name":"東澳","network":"tra","color":"#6B7280"}},{"type":"Feature","geometry":{"type":"Point","coordinates":[121.828149,24.6082494]},"properties":{"id":"tra_su_aoxin","name":"蘇澳新","network":"tra","color":"#6B7280"}},{"type":"Feature","geometry":{"type":"Point","coordinates":[121.7238692,25.023978]},"properties":{"id":"tra_jingtong","name":"菁桐","network":"tra","color":"#6B7280"}},{"type":"Feature","geometry":{"type":"Point","coordinates":[121.7290072,25.1084954]},"properties":{"id":"tra_badu","name":"八堵","network":"tra","color":"#6B7280"}},{"type":"Feature","geometry":{"type":"Point","coordinates":[121.694768,25.0781714]},"properties":{"id":"tra_baifu","name":"百福","network":"tra","color":"#6B7280"}},{"type":"Feature","geometry":{"type":"Point","coordinates":[121.4589125,25.15544]},"properties":{"id":"nt_V01","name":"紅樹林","network":"new_taipei_mrt","color":"#7B5EA7"}},{"type":"Feature","geometry":{"type":"Point","coordinates":[121.426285,25.1911611]},"properties":{"id":"nt_V28","name":"臺北海洋大學","network":"new_taipei_mrt","color":"#7B5EA7"}},{"type":"Feature","geometry":{"type":"Point","coordinates":[121.8514536,24.5951769]},"properties":{"id":"tra_su_ao","name":"蘇澳","network":"tra","color":"#6B7280"}},{"type":"Feature","geometry":{"type":"Point","coordinates":[121.7754851,24.826803]},"properties":{"id":"tra_jiaoxi","name":"礁溪","network":"tra","color":"#6B7280"}},{"type":"Feature","geometry":{"type":"Point","coordinates":[121.822294,24.8590462]},"properties":{"id":"tra_toucheng","name":"頭城","network":"tra","color":"#6B7280"}},{"type":"Feature","geometry":{"type":"Point","coordinates":[121.7974777,25.0498565]},"properties":{"id":"tra_dahua","name":"大華","network":"tra","color":"#6B7280"}},{"type":"Feature","geometry":{"type":"Point","coordinates":[121.6073029,25.0532701]},"properties":{"id":"thsr_nangang","name":"南港","network":"thsr","color":"#E2001A"}},{"type":"Feature","geometry":{"type":"Point","coordinates":[121.6072576,25.0528686]},"properties":{"id":"tra_nangang","name":"南港","network":"tra","color":"#6B7280"}},{"type":"Feature","geometry":{"type":"Point","coordinates":[120.9140702,24.7629187]},"properties":{"id":"tra_xiangshan","name":"香山","network":"tra","color":"#6B7280"}},{"type":"Feature","geometry":{"type":"Point","coordinates":[120.6543999,24.3778315]},"properties":{"id":"tra_rinan","name":"日南","network":"tra","color":"#6B7280"}},{"type":"Feature","geometry":{"type":"Point","coordinates":[120.7106275,24.2345999]},"properties":{"id":"tra_lilin","name":"栗林","network":"tra","color":"#6B7280"}},{"type":"Feature","geometry":{"type":"Point","coordinates":[120.7019548,24.1798722]},"properties":{"id":"tra_songzhu","name":"松竹","network":"tra","color":"#6B7280"}},{"type":"Feature","geometry":{"type":"Point","coordinates":[120.7039417,24.1952609]},"properties":{"id":"tra_toujiacuo","name":"頭家厝","network":"tra","color":"#6B7280"}},{"type":"Feature","geometry":{"type":"Point","coordinates":[120.6978007,24.1493262]},"properties":{"id":"tra_jingwu","name":"精武","network":"tra","color":"#6B7280"}},{"type":"Feature","geometry":{"type":"Point","coordinates":[120.666686,24.1288086]},"properties":{"id":"tra_wuquan","name":"五權","network":"tra","color":"#6B7280"}},{"type":"Feature","geometry":{"type":"Point","coordinates":[121.1836192,24.919647]},"properties":{"id":"tra_puxin","name":"埔心","network":"tra","color":"#6B7280"}},{"type":"Feature","geometry":{"type":"Point","coordinates":[120.6538902,24.1677802]},"properties":{"id":"tc_109","name":"文心櫻花","network":"taichung_mrt","color":"#00A94F"}},{"type":"Feature","geometry":{"type":"Point","coordinates":[120.6606519,24.1715045]},"properties":{"id":"tc_108","name":"文華高中","network":"taichung_mrt","color":"#00A94F"}},{"type":"Feature","geometry":{"type":"Point","coordinates":[120.7087947,24.189106]},"properties":{"id":"tc_103A","name":"北屯總站","network":"taichung_mrt","color":"#00A94F"}},{"type":"Feature","geometry":{"type":"Point","coordinates":[121.4620218,23.8025895]},"properties":{"id":"tra_linrong_shin_kong","name":"林榮新光","network":"tra","color":"#6B7280"}},{"type":"Feature","geometry":{"type":"Point","coordinates":[120.7058646,24.212502]},"properties":{"id":"tra_tanzi","name":"潭子","network":"tra","color":"#6B7280"}},{"type":"Feature","geometry":{"type":"Point","coordinates":[120.6868667,24.1370662]},"properties":{"id":"tra_taichung","name":"臺中","network":"tra","color":"#6B7280"}},{"type":"Feature","geometry":{"type":"Point","coordinates":[120.7236842,24.2545422]},"properties":{"id":"tra_fengyuan","name":"豐原","network":"tra","color":"#6B7280"}},{"type":"Feature","geometry":{"type":"Point","coordinates":[121.2847775,25.0808055]},"properties":{"id":"ty_A10","name":"山鼻","network":"taoyuan_mrt","color":"#9B1F6E"}},{"type":"Feature","geometry":{"type":"Point","coordinates":[120.9282199,24.7872315]},"properties":{"id":"tra_sanxingqiao","name":"三姓橋","network":"tra","color":"#6B7280"}},{"type":"Feature","geometry":{"type":"Point","coordinates":[121.3614372,25.0657846]},"properties":{"id":"ty_A9","name":"林口","network":"taoyuan_mrt","color":"#9B1F6E"}},{"type":"Feature","geometry":{"type":"Point","coordinates":[121.5057104,24.9933996]},"properties":{"id":"nt_Y11","name":"景安","network":"new_taipei_mrt","color":"#7B5EA7"}},{"type":"Feature","geometry":{"type":"Point","coordinates":[120.2897209,23.0682229]},"properties":{"id":"tra_xinshi","name":"新市","network":"tra","color":"#6B7280"}},{"type":"Feature","geometry":{"type":"Point","coordinates":[120.2534441,23.0385558]},"properties":{"id":"tra_yongkang","name":"永康","network":"tra","color":"#6B7280"}},{"type":"Feature","geometry":{"type":"Point","coordinates":[120.2242931,23.0193759]},"properties":{"id":"tra_daqiao","name":"大橋","network":"tra","color":"#6B7280"}},{"type":"Feature","geometry":{"type":"Point","coordinates":[120.3019684,23.1072447]},"properties":{"id":"tra_nanke","name":"南科","network":"tra","color":"#6B7280"}},{"type":"Feature","geometry":{"type":"Point","coordinates":[120.3066223,23.1330374]},"properties":{"id":"tra_shanhua","name":"善化","network":"tra","color":"#6B7280"}},{"type":"Feature","geometry":{"type":"Point","coordinates":[120.3213224,23.1727888]},"properties":{"id":"tra_balin","name":"拔林","network":"tra","color":"#6B7280"}},{"type":"Feature","geometry":{"type":"Point","coordinates":[120.3233376,23.306398]},"properties":{"id":"tra_xinying","name":"新營","network":"tra","color":"#6B7280"}},{"type":"Feature","geometry":{"type":"Point","coordinates":[120.3194897,23.1927466]},"properties":{"id":"tra_longtian","name":"隆田","network":"tra","color":"#6B7280"}},{"type":"Feature","geometry":{"type":"Point","coordinates":[120.3211345,23.242596]},"properties":{"id":"tra_linfengying","name":"林鳳營","network":"tra","color":"#6B7280"}},{"type":"Feature","geometry":{"type":"Point","coordinates":[120.3603524,23.3661495]},"properties":{"id":"tra_houbi","name":"後壁","network":"tra","color":"#6B7280"}},{"type":"Feature","geometry":{"type":"Point","coordinates":[120.3197975,22.5995711]},"properties":{"id":"ks_C2","name":"凱旋瑞田","network":"kaohsiung_mrt","color":"#EF3340"}},{"type":"Feature","geometry":{"type":"Point","coordinates":[120.3246121,22.604578]},"properties":{"id":"ks_C1","name":"籬仔內","network":"kaohsiung_mrt","color":"#EF3340"}},{"type":"Feature","geometry":{"type":"Point","coordinates":[120.3153928,22.5954952]},"properties":{"id":"ks_C3","name":"前鎮之星","network":"kaohsiung_mrt","color":"#EF3340"}},{"type":"Feature","geometry":{"type":"Point","coordinates":[120.3008011,22.6056852]},"properties":{"id":"ks_C7","name":"軟體園區","network":"kaohsiung_mrt","color":"#EF3340"}},{"type":"Feature","geometry":{"type":"Point","coordinates":[120.3105357,22.5936154]},"properties":{"id":"ks_C4","name":"凱旋中華","network":"kaohsiung_mrt","color":"#EF3340"}},{"type":"Feature","geometry":{"type":"Point","coordinates":[120.2980082,22.6101061]},"properties":{"id":"ks_C8","name":"高雄展覽館","network":"kaohsiung_mrt","color":"#EF3340"}},{"type":"Feature","geometry":{"type":"Point","coordinates":[120.3026381,22.6008963]},"properties":{"id":"ks_C6","name":"經貿園區","network":"kaohsiung_mrt","color":"#EF3340"}},{"type":"Feature","geometry":{"type":"Point","coordinates":[120.3049144,22.595005]},"properties":{"id":"ks_C5","name":"夢時代","network":"kaohsiung_mrt","color":"#EF3340"}},{"type":"Feature","geometry":{"type":"Point","coordinates":[120.3416274,22.5701158]},"properties":{"id":"ks_R4","name":"高雄國際機場","network":"kaohsiung_mrt","color":"#EF3340"}},{"type":"Feature","geometry":{"type":"Point","coordinates":[120.3287686,22.5805475]},"properties":{"id":"ks_R4A","name":"草衙","network":"kaohsiung_mrt","color":"#EF3340"}},{"type":"Feature","geometry":{"type":"Point","coordinates":[120.3538755,22.5645135]},"properties":{"id":"ks_R3","name":"小港","network":"kaohsiung_mrt","color":"#EF3340"}},{"type":"Feature","geometry":{"type":"Point","coordinates":[120.3151134,22.5970181]},"properties":{"id":"ks_R6","name":"凱旋","network":"kaohsiung_mrt","color":"#EF3340"}},{"type":"Feature","geometry":{"type":"Point","coordinates":[120.3217412,22.5884118]},"properties":{"id":"ks_R5","name":"前鎮高中","network":"kaohsiung_mrt","color":"#EF3340"}},{"type":"Feature","geometry":{"type":"Point","coordinates":[120.3078782,22.6061802]},"properties":{"id":"ks_R7","name":"獅甲","network":"kaohsiung_mrt","color":"#EF3340"}},{"type":"Feature","geometry":{"type":"Point","coordinates":[120.3044216,22.6141528]},"properties":{"id":"ks_R8","name":"三多商圈","network":"kaohsiung_mrt","color":"#EF3340"}},{"type":"Feature","geometry":{"type":"Point","coordinates":[120.3011177,22.6248724]},"properties":{"id":"ks_R9","name":"中央公園","network":"kaohsiung_mrt","color":"#EF3340"}},{"type":"Feature","geometry":{"type":"Point","coordinates":[120.2748048,22.621369]},"properties":{"id":"ks_O1","name":"哈瑪星","network":"kaohsiung_mrt","color":"#EF3340"}},{"type":"Feature","geometry":{"type":"Point","coordinates":[120.3030787,22.6571226]},"properties":{"id":"ks_R13","name":"凹子底","network":"kaohsiung_mrt","color":"#EF3340"}},{"type":"Feature","geometry":{"type":"Point","coordinates":[120.2840775,22.6241553]},"properties":{"id":"ks_O2","name":"鹽埕埔","network":"kaohsiung_mrt","color":"#EF3340"}},{"type":"Feature","geometry":{"type":"Point","coordinates":[120.3018602,22.6313941]},"properties":{"id":"ks_O5","name":"美麗島","network":"kaohsiung_mrt","color":"#EF3340"}},{"type":"Feature","geometry":{"type":"Point","coordinates":[120.3032208,22.6477388]},"properties":{"id":"ks_R12","name":"後驛","network":"kaohsiung_mrt","color":"#EF3340"}},{"type":"Feature","geometry":{"type":"Point","coordinates":[120.2946284,22.6289683]},"properties":{"id":"ks_O4","name":"前金","network":"kaohsiung_mrt","color":"#EF3340"}},{"type":"Feature","geometry":{"type":"Point","coordinates":[120.3063428,22.6764628]},"properties":{"id":"ks_R15","name":"生態園區","network":"kaohsiung_mrt","color":"#EF3340"}},{"type":"Feature","geometry":{"type":"Point","coordinates":[120.3032563,22.6656214]},"properties":{"id":"ks_R14","name":"巨蛋","network":"kaohsiung_mrt","color":"#EF3340"}},{"type":"Feature","geometry":{"type":"Point","coordinates":[120.309019,22.6881662]},"properties":{"id":"ks_R16","name":"左營","network":"kaohsiung_mrt","color":"#EF3340"}},{"type":"Feature","geometry":{"type":"Point","coordinates":[120.3026522,22.6393352]},"properties":{"id":"ks_R11","name":"高雄車站","network":"kaohsiung_mrt","color":"#EF3340"}},{"type":"Feature","geometry":{"type":"Point","coordinates":[120.3025096,22.7017541]},"properties":{"id":"ks_R17","name":"世運","network":"kaohsiung_mrt","color":"#EF3340"}},{"type":"Feature","geometry":{"type":"Point","coordinates":[120.3023063,22.7087537]},"properties":{"id":"ks_R18","name":"油廠國小","network":"kaohsiung_mrt","color":"#EF3340"}},{"type":"Feature","geometry":{"type":"Point","coordinates":[120.3071682,22.7187124]},"properties":{"id":"ks_R19","name":"楠梓科技園區","network":"kaohsiung_mrt","color":"#EF3340"}},{"type":"Feature","geometry":{"type":"Point","coordinates":[120.3209273,22.7296101]},"properties":{"id":"ks_R21","name":"都會公園","network":"kaohsiung_mrt","color":"#EF3340"}},{"type":"Feature","geometry":{"type":"Point","coordinates":[120.3162548,22.7223496]},"properties":{"id":"ks_R20","name":"後勁","network":"kaohsiung_mrt","color":"#EF3340"}},{"type":"Feature","geometry":{"type":"Point","coordinates":[120.3177237,22.7444067]},"properties":{"id":"ks_R22","name":"青埔","network":"kaohsiung_mrt","color":"#EF3340"}},{"type":"Feature","geometry":{"type":"Point","coordinates":[120.3145546,22.7535555]},"properties":{"id":"ks_R22A","name":"橋頭糖廠","network":"kaohsiung_mrt","color":"#EF3340"}},{"type":"Feature","geometry":{"type":"Point","coordinates":[120.3106932,22.7609322]},"properties":{"id":"ks_R23","name":"橋頭火車站","network":"kaohsiung_mrt","color":"#EF3340"}},{"type":"Feature","geometry":{"type":"Point","coordinates":[120.3017302,22.7807473]},"properties":{"id":"ks_R24","name":"岡山高醫","network":"kaohsiung_mrt","color":"#EF3340"}},{"type":"Feature","geometry":{"type":"Point","coordinates":[120.3114522,22.6307269]},"properties":{"id":"ks_O6","name":"信義國小","network":"kaohsiung_mrt","color":"#EF3340"}},{"type":"Feature","geometry":{"type":"Point","coordinates":[120.3176229,22.6302695]},"properties":{"id":"ks_O7","name":"文化中心","network":"kaohsiung_mrt","color":"#EF3340"}},{"type":"Feature","geometry":{"type":"Point","coordinates":[120.3276476,22.6294745]},"properties":{"id":"ks_O8","name":"五塊厝","network":"kaohsiung_mrt","color":"#EF3340"}},{"type":"Feature","geometry":{"type":"Point","coordinates":[120.3346396,22.6272511]},"properties":{"id":"ks_O9","name":"苓雅運動園區","network":"kaohsiung_mrt","color":"#EF3340"}},{"type":"Feature","geometry":{"type":"Point","coordinates":[120.3407993,22.6251886]},"properties":{"id":"ks_O10","name":"衛武營","network":"kaohsiung_mrt","color":"#EF3340"}},{"type":"Feature","geometry":{"type":"Point","coordinates":[120.3480491,22.6253627]},"properties":{"id":"ks_O11","name":"鳳山西站","network":"kaohsiung_mrt","color":"#EF3340"}},{"type":"Feature","geometry":{"type":"Point","coordinates":[120.3552091,22.6259919]},"properties":{"id":"ks_O12","name":"鳳山","network":"kaohsiung_mrt","color":"#EF3340"}},{"type":"Feature","geometry":{"type":"Point","coordinates":[120.3633605,22.6251921]},"properties":{"id":"ks_O13","name":"大東","network":"kaohsiung_mrt","color":"#EF3340"}},{"type":"Feature","geometry":{"type":"Point","coordinates":[120.3718273,22.6246291]},"properties":{"id":"ks_O14","name":"鳳山國中","network":"kaohsiung_mrt","color":"#EF3340"}},{"type":"Feature","geometry":{"type":"Point","coordinates":[120.6849892,24.1721885]},"properties":{"id":"tc_106","name":"文心崇德","network":"taichung_mrt","color":"#00A94F"}},{"type":"Feature","geometry":{"type":"Point","coordinates":[121.2193715,24.9585814]},"properties":{"id":"ty_A22","name":"老街溪","network":"taoyuan_mrt","color":"#9B1F6E"}},{"type":"Feature","geometry":{"type":"Point","coordinates":[121.4395522,25.0532646]},"properties":{"id":"ty_A5","name":"泰山","network":"taoyuan_mrt","color":"#9B1F6E"}},{"type":"Feature","geometry":{"type":"Point","coordinates":[121.2106496,25.0558139]},"properties":{"id":"ty_A15","name":"大園","network":"taoyuan_mrt","color":"#9B1F6E"}},{"type":"Feature","geometry":{"type":"Point","coordinates":[121.5143449,25.0487037]},"properties":{"id":"ty_A1","name":"台北車站","network":"taoyuan_mrt","color":"#9B1F6E"}},{"type":"Feature","geometry":{"type":"Point","coordinates":[121.482813,25.0546641]},"properties":{"id":"ty_A2","name":"三重","network":"taoyuan_mrt","color":"#9B1F6E"}},{"type":"Feature","geometry":{"type":"Point","coordinates":[121.4457893,25.05921]},"properties":{"id":"ty_A4","name":"新莊副都心","network":"taoyuan_mrt","color":"#9B1F6E"}},{"type":"Feature","geometry":{"type":"Point","coordinates":[121.4229634,25.0333454]},"properties":{"id":"ty_A6","name":"泰山貴和","network":"taoyuan_mrt","color":"#9B1F6E"}},{"type":"Feature","geometry":{"type":"Point","coordinates":[121.2208004,24.9671663]},"properties":{"id":"ty_A21","name":"環北","network":"taoyuan_mrt","color":"#9B1F6E"}},{"type":"Feature","geometry":{"type":"Point","coordinates":[121.2206257,25.0691793]},"properties":{"id":"ty_A14A","name":"機場旅館","network":"taoyuan_mrt","color":"#9B1F6E"}},{"type":"Feature","geometry":{"type":"Point","coordinates":[121.2322564,25.0772273]},"properties":{"id":"ty_A13","name":"機場第二航廈","network":"taoyuan_mrt","color":"#9B1F6E"}},{"type":"Feature","geometry":{"type":"Point","coordinates":[121.2383976,25.080498]},"properties":{"id":"ty_A12","name":"機場第一航廈","network":"taoyuan_mrt","color":"#9B1F6E"}},{"type":"Feature","geometry":{"type":"Point","coordinates":[121.2663561,25.0864909]},"properties":{"id":"ty_A11","name":"坑口","network":"taoyuan_mrt","color":"#9B1F6E"}},{"type":"Feature","geometry":{"type":"Point","coordinates":[121.3707965,25.0604744]},"properties":{"id":"ty_A8","name":"長庚醫院","network":"taoyuan_mrt","color":"#9B1F6E"}},{"type":"Feature","geometry":{"type":"Point","coordinates":[121.3854083,25.0413317]},"properties":{"id":"ty_A7","name":"體育大學","network":"taoyuan_mrt","color":"#9B1F6E"}},{"type":"Feature","geometry":{"type":"Point","coordinates":[120.6399052,24.114382]},"properties":{"id":"tc_116","name":"九張犁","network":"taichung_mrt","color":"#00A94F"}},{"type":"Feature","geometry":{"type":"Point","coordinates":[121.4641275,25.0138099]},"properties":{"id":"tra_banqiao","name":"板橋","network":"tra","color":"#6B7280"}},{"type":"Feature","geometry":{"type":"Point","coordinates":[120.2933482,22.6116371]},"properties":{"id":"ks_C9","name":"旅運中心","network":"kaohsiung_mrt","color":"#EF3340"}},{"type":"Feature","geometry":{"type":"Point","coordinates":[121.4245352,24.991216]},"properties":{"id":"tra_shulin","name":"樹林","network":"tra","color":"#6B7280"}},{"type":"Feature","geometry":{"type":"Point","coordinates":[121.3925867,24.9726886]},"properties":{"id":"tra_shanjia","name":"山佳","network":"tra","color":"#6B7280"}},{"type":"Feature","geometry":{"type":"Point","coordinates":[121.3551582,24.9545536]},"properties":{"id":"tra_yingke","name":"鶯歌","network":"tra","color":"#6B7280"}},{"type":"Feature","geometry":{"type":"Point","coordinates":[120.2894256,22.6192654]},"properties":{"id":"ks_C11","name":"真愛碼頭","network":"kaohsiung_mrt","color":"#EF3340"}},{"type":"Feature","geometry":{"type":"Point","coordinates":[120.2931506,22.6166858]},"properties":{"id":"ks_C10","name":"光榮碼頭","network":"kaohsiung_mrt","color":"#EF3340"}},{"type":"Feature","geometry":{"type":"Point","coordinates":[120.2758388,22.6216116]},"properties":{"id":"ks_C14","name":"哈瑪星","network":"kaohsiung_mrt","color":"#EF3340"}},{"type":"Feature","geometry":{"type":"Point","coordinates":[120.2799183,22.6204454]},"properties":{"id":"ks_C13","name":"駁二蓬萊","network":"kaohsiung_mrt","color":"#EF3340"}},{"type":"Feature","geometry":{"type":"Point","coordinates":[120.2842225,22.6184985]},"properties":{"id":"ks_C12","name":"駁二大義","network":"kaohsiung_mrt","color":"#EF3340"}},{"type":"Feature","geometry":{"type":"Point","coordinates":[121.4467128,23.746295]},"properties":{"id":"tra_fenglin","name":"鳳林","network":"tra","color":"#6B7280"}},{"type":"Feature","geometry":{"type":"Point","coordinates":[120.5360618,22.5499793]},"properties":{"id":"tra_chaozhou","name":"潮州","network":"tra","color":"#6B7280"}},{"type":"Feature","geometry":{"type":"Point","coordinates":[120.5723161,22.3989423]},"properties":{"id":"tra_donghai","name":"東海","network":"tra","color":"#6B7280"}},{"type":"Feature","geometry":{"type":"Point","coordinates":[121.8000503,25.1374024]},"properties":{"id":"tra_haikeguan","name":"海科館","network":"tra","color":"#6B7280"}},{"type":"Feature","geometry":{"type":"Point","coordinates":[121.4902458,25.0046042]},"properties":{"id":"nt_Y13","name":"橋和","network":"new_taipei_mrt","color":"#7B5EA7"}},{"type":"Feature","geometry":{"type":"Point","coordinates":[121.4958503,25.0023167]},"properties":{"id":"nt_Y12","name":"中和","network":"new_taipei_mrt","color":"#7B5EA7"}},{"type":"Feature","geometry":{"type":"Point","coordinates":[120.6140045,24.1100718]},"properties":{"id":"tc_119","name":"高鐵臺中站","network":"taichung_mrt","color":"#00A94F"}},{"type":"Feature","geometry":{"type":"Point","coordinates":[120.2809263,22.641978]},"properties":{"id":"tra_gushan","name":"鼓山","network":"tra","color":"#6B7280"}},{"type":"Feature","geometry":{"type":"Point","coordinates":[120.5905597,24.1143357]},"properties":{"id":"tra_chenggong","name":"成功","network":"tra","color":"#6B7280"}},{"type":"Feature","geometry":{"type":"Point","coordinates":[120.2939211,22.6392309]},"properties":{"id":"tra_sankuaicuo","name":"三塊厝","network":"tra","color":"#6B7280"}},{"type":"Feature","geometry":{"type":"Point","coordinates":[120.2815509,22.6519869]},"properties":{"id":"tra_fine_art_museum","name":"美術館","network":"tra","color":"#6B7280"}},{"type":"Feature","geometry":{"type":"Point","coordinates":[120.2869788,22.6658791]},"properties":{"id":"tra_neiwei","name":"內惟","network":"tra","color":"#6B7280"}},{"type":"Feature","geometry":{"type":"Point","coordinates":[121.7583109,24.7545601]},"properties":{"id":"tra_yilan","name":"宜蘭","network":"tra","color":"#6B7280"}},{"type":"Feature","geometry":{"type":"Point","coordinates":[121.6009524,23.9926399]},"properties":{"id":"tra_hualien","name":"花蓮","network":"tra","color":"#6B7280"}},{"type":"Feature","geometry":{"type":"Point","coordinates":[121.1224316,22.7934597]},"properties":{"id":"tra_taitung","name":"臺東","network":"tra","color":"#6B7280"}},{"type":"Feature","geometry":{"type":"Point","coordinates":[121.0606572,22.7101703]},"properties":{"id":"tra_zhiben","name":"知本","network":"tra","color":"#6B7280"}},{"type":"Feature","geometry":{"type":"Point","coordinates":[120.6467169,24.1454324]},"properties":{"id":"tc_112","name":"文心森林公園","network":"taichung_mrt","color":"#00A94F"}},{"type":"Feature","geometry":{"type":"Point","coordinates":[120.6492346,24.1620975]},"properties":{"id":"tc_110","name":"市政府","network":"taichung_mrt","color":"#00A94F"}},{"type":"Feature","geometry":{"type":"Point","coordinates":[120.707311,24.1823336]},"properties":{"id":"tc_103","name":"舊社","network":"taichung_mrt","color":"#00A94F"}},{"type":"Feature","geometry":{"type":"Point","coordinates":[120.6248657,24.1088771]},"properties":{"id":"tc_118","name":"烏日","network":"taichung_mrt","color":"#00A94F"}},{"type":"Feature","geometry":{"type":"Point","coordinates":[120.6475045,24.1190562]},"properties":{"id":"tc_115","name":"大慶","network":"taichung_mrt","color":"#00A94F"}},{"type":"Feature","geometry":{"type":"Point","coordinates":[120.6464415,24.1323601]},"properties":{"id":"tc_114","name":"豐樂公園","network":"taichung_mrt","color":"#00A94F"}},{"type":"Feature","geometry":{"type":"Point","coordinates":[120.6466919,24.1405491]},"properties":{"id":"tc_113","name":"南屯","network":"taichung_mrt","color":"#00A94F"}},{"type":"Feature","geometry":{"type":"Point","coordinates":[120.6932542,24.1712587]},"properties":{"id":"tc_105","name":"四維國小","network":"taichung_mrt","color":"#00A94F"}},{"type":"Feature","geometry":{"type":"Point","coordinates":[120.7013972,24.1807297]},"properties":{"id":"tc_104","name":"松竹","network":"taichung_mrt","color":"#00A94F"}},{"type":"Feature","geometry":{"type":"Point","coordinates":[120.3905893,22.6221173]},"properties":{"id":"ks_OT1","name":"大寮","network":"kaohsiung_mrt","color":"#EF3340"}},{"type":"Feature","geometry":{"type":"Point","coordinates":[120.2666339,22.8538605]},"properties":{"id":"tra_luzhu","name":"路竹","network":"tra","color":"#6B7280"}},{"type":"Feature","geometry":{"type":"Point","coordinates":[120.2825911,22.6360321]},"properties":{"id":"ks_C17","name":"鼓山區公所","network":"kaohsiung_mrt","color":"#EF3340"}},{"type":"Feature","geometry":{"type":"Point","coordinates":[120.2807283,22.6295474]},"properties":{"id":"ks_C16","name":"文武聖殿","network":"kaohsiung_mrt","color":"#EF3340"}},{"type":"Feature","geometry":{"type":"Point","coordinates":[120.278669,22.6265296]},"properties":{"id":"ks_C15","name":"壽山公園","network":"kaohsiung_mrt","color":"#EF3340"}},{"type":"Feature","geometry":{"type":"Point","coordinates":[120.2937537,22.6739898]},"properties":{"id":"tra_zuoying_jiucheng","name":"左營(舊城)","network":"tra","color":"#6B7280"}},{"type":"Feature","geometry":{"type":"Point","coordinates":[120.3025585,22.6395321]},"properties":{"id":"tra_kaohsiung","name":"高雄","network":"tra","color":"#6B7280"}},{"type":"Feature","geometry":{"type":"Point","coordinates":[120.3566769,22.6315973]},"properties":{"id":"tra_fengshan","name":"鳳山","network":"tra","color":"#6B7280"}},{"type":"Feature","geometry":{"type":"Point","coordinates":[121.2148277,25.0130247]},"properties":{"id":"thsr_taoyuan","name":"桃園","network":"thsr","color":"#E2001A"}},{"type":"Feature","geometry":{"type":"Point","coordinates":[121.4316345,25.1904655]},"properties":{"id":"nt_V09","name":"濱海沙崙","network":"new_taipei_mrt","color":"#7B5EA7"}},{"type":"Feature","geometry":{"type":"Point","coordinates":[121.4324753,25.1956548]},"properties":{"id":"nt_V10","name":"淡海新市鎮","network":"new_taipei_mrt","color":"#7B5EA7"}},{"type":"Feature","geometry":{"type":"Point","coordinates":[121.434621,25.2009501]},"properties":{"id":"nt_V11","name":"崁頂","network":"new_taipei_mrt","color":"#7B5EA7"}},{"type":"Feature","geometry":{"type":"Point","coordinates":[121.4445041,25.1889533]},"properties":{"id":"nt_V07","name":"淡水行政中心","network":"new_taipei_mrt","color":"#7B5EA7"}},{"type":"Feature","geometry":{"type":"Point","coordinates":[121.4373723,25.1897184]},"properties":{"id":"nt_V08","name":"濱海義山","network":"new_taipei_mrt","color":"#7B5EA7"}},{"type":"Feature","geometry":{"type":"Point","coordinates":[121.456225,25.1621824]},"properties":{"id":"nt_V02","name":"竿蓁林","network":"new_taipei_mrt","color":"#7B5EA7"}},{"type":"Feature","geometry":{"type":"Point","coordinates":[121.4608263,25.1693035]},"properties":{"id":"nt_V03","name":"淡金鄧公","network":"new_taipei_mrt","color":"#7B5EA7"}},{"type":"Feature","geometry":{"type":"Point","coordinates":[121.4559765,25.1770757]},"properties":{"id":"nt_V04","name":"淡江大學","network":"new_taipei_mrt","color":"#7B5EA7"}},{"type":"Feature","geometry":{"type":"Point","coordinates":[121.452165,25.1812144]},"properties":{"id":"nt_V05","name":"淡金北新","network":"new_taipei_mrt","color":"#7B5EA7"}},{"type":"Feature","geometry":{"type":"Point","coordinates":[121.4481232,25.1838978]},"properties":{"id":"nt_V06","name":"新市一路","network":"new_taipei_mrt","color":"#7B5EA7"}},{"type":"Feature","geometry":{"type":"Point","coordinates":[121.0312003,24.7817132]},"properties":{"id":"tra_zhuzhong","name":"竹中","network":"tra","color":"#6B7280"}},{"type":"Feature","geometry":{"type":"Point","coordinates":[120.826295,24.6043992]},"properties":{"id":"tra_fengfu","name":"豐富","network":"tra","color":"#6B7280"}},{"type":"Feature","geometry":{"type":"Point","coordinates":[121.7400116,25.0256629]},"properties":{"id":"tra_pingxi","name":"平溪","network":"tra","color":"#6B7280"}},{"type":"Feature","geometry":{"type":"Point","coordinates":[120.6467803,24.1532394]},"properties":{"id":"tc_111","name":"水安宮","network":"taichung_mrt","color":"#00A94F"}},{"type":"Feature","geometry":{"type":"Point","coordinates":[121.5273077,24.9843634]},"properties":{"id":"nt_K09","name":"十四張","network":"new_taipei_mrt","color":"#7B5EA7"}},{"type":"Feature","geometry":{"type":"Point","coordinates":[121.518589,24.9834417]},"properties":{"id":"nt_K08","name":"新和國小","network":"new_taipei_mrt","color":"#7B5EA7"}},{"type":"Feature","geometry":{"type":"Point","coordinates":[121.5195115,24.9723085]},"properties":{"id":"nt_K07","name":"陽光運動公園","network":"new_taipei_mrt","color":"#7B5EA7"}},{"type":"Feature","geometry":{"type":"Point","coordinates":[121.5172987,24.9651575]},"properties":{"id":"nt_K06","name":"安康","network":"new_taipei_mrt","color":"#7B5EA7"}},{"type":"Feature","geometry":{"type":"Point","coordinates":[121.5104159,24.9555559]},"properties":{"id":"nt_K05","name":"景文科大","network":"new_taipei_mrt","color":"#7B5EA7"}},{"type":"Feature","geometry":{"type":"Point","coordinates":[121.5046917,24.9544744]},"properties":{"id":"nt_K04","name":"耕莘安康院區","network":"new_taipei_mrt","color":"#7B5EA7"}},{"type":"Feature","geometry":{"type":"Point","coordinates":[121.4993694,24.9536931]},"properties":{"id":"nt_K03","name":"台北小城","network":"new_taipei_mrt","color":"#7B5EA7"}},{"type":"Feature","geometry":{"type":"Point","coordinates":[121.49406,24.95092]},"properties":{"id":"nt_K02","name":"玫瑰中國城","network":"new_taipei_mrt","color":"#7B5EA7"}},{"type":"Feature","geometry":{"type":"Point","coordinates":[121.4896615,24.9463253]},"properties":{"id":"nt_K01","name":"雙城","network":"new_taipei_mrt","color":"#7B5EA7"}},{"type":"Feature","geometry":{"type":"Point","coordinates":[121.4186124,25.1820049]},"properties":{"id":"nt_V26","name":"淡水漁人碼頭","network":"new_taipei_mrt","color":"#7B5EA7"}},{"type":"Feature","geometry":{"type":"Point","coordinates":[121.41719,25.18745]},"properties":{"id":"nt_V27","name":"沙崙","network":"new_taipei_mrt","color":"#7B5EA7"}},{"type":"Feature","geometry":{"type":"Point","coordinates":[120.2817491,22.6521144]},"properties":{"id":"ks_C20","name":"臺鐵美術館","network":"kaohsiung_mrt","color":"#EF3340"}},{"type":"Feature","geometry":{"type":"Point","coordinates":[120.2814409,22.6470427]},"properties":{"id":"ks_C19","name":"馬卡道","network":"kaohsiung_mrt","color":"#EF3340"}},{"type":"Feature","geometry":{"type":"Point","coordinates":[120.2810929,22.6420358]},"properties":{"id":"ks_C18","name":"輕軌鼓山站","network":"kaohsiung_mrt","color":"#EF3340"}},{"type":"Feature","geometry":{"type":"Point","coordinates":[120.3260515,22.6084757]},"properties":{"id":"ks_C37","name":"輕軌機廠","network":"kaohsiung_mrt","color":"#EF3340"}},{"type":"Feature","geometry":{"type":"Point","coordinates":[120.3271484,22.6125106]},"properties":{"id":"ks_C36","name":"凱旋二聖","network":"kaohsiung_mrt","color":"#EF3340"}},{"type":"Feature","geometry":{"type":"Point","coordinates":[120.3268268,22.6168915]},"properties":{"id":"ks_C35","name":"凱旋武昌","network":"kaohsiung_mrt","color":"#EF3340"}},{"type":"Feature","geometry":{"type":"Point","coordinates":[120.32518,22.6211709]},"properties":{"id":"ks_C34","name":"五權國小","network":"kaohsiung_mrt","color":"#EF3340"}},{"type":"Feature","geometry":{"type":"Point","coordinates":[120.3236496,22.6251751]},"properties":{"id":"ks_C33","name":"衛生局","network":"kaohsiung_mrt","color":"#EF3340"}},{"type":"Feature","geometry":{"type":"Point","coordinates":[120.322824,22.6294128]},"properties":{"id":"ks_C32","name":"凱旋公園","network":"kaohsiung_mrt","color":"#EF3340"}},{"type":"Feature","geometry":{"type":"Point","coordinates":[120.303253,22.6561709]},"properties":{"id":"ks_C24","name":"愛河之心","network":"kaohsiung_mrt","color":"#EF3340"}},{"type":"Feature","geometry":{"type":"Point","coordinates":[120.2950847,22.6544819]},"properties":{"id":"ks_C23","name":"龍華國小","network":"kaohsiung_mrt","color":"#EF3340"}},{"type":"Feature","geometry":{"type":"Point","coordinates":[120.2910873,22.654805]},"properties":{"id":"ks_C22","name":"聯合醫院","network":"kaohsiung_mrt","color":"#EF3340"}},{"type":"Feature","geometry":{"type":"Point","coordinates":[120.2872544,22.6549882]},"properties":{"id":"ks_C21","name":"美術館","network":"kaohsiung_mrt","color":"#EF3340"}},{"type":"Feature","geometry":{"type":"Point","coordinates":[120.2828409,22.6549695]},"properties":{"id":"ks_C21A","name":"內惟藝術中心","network":"kaohsiung_mrt","color":"#EF3340"}},{"type":"Feature","geometry":{"type":"Point","coordinates":[121.5624453,25.0329794]},"properties":{"id":"tp_R03","name":"台北101/世貿","network":"taipei_mrt","color":"#0070BD"}},{"type":"Feature","geometry":{"type":"Point","coordinates":[120.3256124,22.6327993]},"properties":{"id":"ks_C31","name":"聖功醫院","network":"kaohsiung_mrt","color":"#EF3340"}},{"type":"Feature","geometry":{"type":"Point","coordinates":[120.3271428,22.6369232]},"properties":{"id":"ks_C30","name":"科工館","network":"kaohsiung_mrt","color":"#EF3340"}},{"type":"Feature","geometry":{"type":"Point","coordinates":[120.3263305,22.6438161]},"properties":{"id":"ks_C29","name":"樹德家商","network":"kaohsiung_mrt","color":"#EF3340"}},{"type":"Feature","geometry":{"type":"Point","coordinates":[120.3241552,22.6497954]},"properties":{"id":"ks_C28","name":"高雄高工","network":"kaohsiung_mrt","color":"#EF3340"}},{"type":"Feature","geometry":{"type":"Point","coordinates":[120.31888,22.653543]},"properties":{"id":"ks_C27","name":"灣仔內","network":"kaohsiung_mrt","color":"#EF3340"}},{"type":"Feature","geometry":{"type":"Point","coordinates":[120.3154233,22.6554849]},"properties":{"id":"ks_C26","name":"大順民族","network":"kaohsiung_mrt","color":"#EF3340"}},{"type":"Feature","geometry":{"type":"Point","coordinates":[120.3088043,22.6566418]},"properties":{"id":"ks_C25","name":"新上國小","network":"kaohsiung_mrt","color":"#EF3340"}},{"type":"Feature","geometry":{"type":"Point","coordinates":[121.5416446,24.9828172]},"properties":{"id":"nt_Y07","name":"大坪林","network":"new_taipei_mrt","color":"#7B5EA7"}},{"type":"Feature","geometry":{"type":"Point","coordinates":[120.3262783,22.6370618]},"properties":{"id":"tra_science_and_technology_museum","name":"科工館","network":"tra","color":"#6B7280"}},{"type":"Feature","geometry":{"type":"Point","coordinates":[120.742095,22.2751142]},"properties":{"id":"tra_","name":"中央號誌","network":"tra","color":"#6B7280"}},{"type":"Feature","geometry":{"type":"Point","coordinates":[121.3367973,24.9724968]},"properties":{"id":"tra_fong_ming","name":"鳳鳴","network":"tra","color":"#6B7280"}},{"type":"Feature","geometry":{"type":"Point","coordinates":[120.5027937,22.6522748]},"properties":{"id":"tra_guilai","name":"歸來","network":"tra","color":"#6B7280"}}]}